[{"OBJECT_NAME":"APRIZESAT 3","OBJECT_ID":"2009-041F","EPOCH":"2026-03-09T21:53:07.275264","MEAN_MOTION":14.95902996,"ECCENTRICITY":0.00628853,"INCLINATION":98.1904,"RA_OF_ASC_NODE":217.4844,"ARG_OF_PERICENTER":35.8471,"MEAN_ANOMALY":324.6944,"EPHEMERIS_TYPE":0,"CLASSIFICATION_TYPE":"U","NORAD_CAT_ID":35686,"ELEMENT_SET_NO":999,"REV_AT_EPOCH":90153,"BSTAR":0.00014818153,"MEAN_MOTION_DOT":1.656e-5,"MEAN_MOTION_DDOT":0},{"OBJECT_NAME":"STARLINK-4494","OBJECT_ID":"2022-101AH","EPOCH":"2026-03-09T23:38:35.771136","MEAN_MOTION":15.08833701,"ECCENTRICITY":0.00014733,"INCLINATION":53.2178,"RA_OF_ASC_NODE":57.5174,"ARG_OF_PERICENTER":100.1869,"MEAN_ANOMALY":259.9289,"EPHEMERIS_TYPE":0,"CLASSIFICATION_TYPE":"U","NORAD_CAT_ID":53558,"ELEMENT_SET_NO":999,"REV_AT_EPOCH":19708,"BSTAR":-2.0114962e-5,"MEAN_MOTION_DOT":-6.08e-6,"MEAN_MOTION_DDOT":0}]
